FENGYUN 2E              
1 33463U 08066A   24147.57069243 -.00000286  00000+0  00000+0 0  9998
2 33463   7.5362  60.7490 0002682  30.5411 141.8767  0.99123585 56559
NOAA 19                 
1 33591U 09005A   24147.56254954  .00000302  00000+0  18608-3 0  9993
2 33591  99.0482 203.1317 0013588 357.9360   2.1753 14.13012692788314
GOES 14                 
1 35491U 09033A   24147.52271524 -.00000052  00000+0  00000+0 0  9999
2 35491   0.2887 106.3994 0003934 337.6017 240.1467  1.00272512 54572
DMSP 5D-3 F18 (USA 210) 
1 35951U 09057A   24147.54226842  .00000422  00000+0  24472-3 0  9994
2 35951  98.8128 123.1850 0010161 224.4037 135.6321 14.14121910753327
EWS-G2 (GOES 15)        
1 36411U 10008A   24147.55454538  .00000050  00000+0  00000+0 0  9994
2 36411   0.2434  90.0859 0001295  96.8505 318.9771  1.00266047 52101
COMS 1                  
1 36744U 10032A   24147.60521637 -.00000332  00000+0  00000+0 0  9995
2 36744   2.8782  84.6676 0001140 338.9192 167.0842  1.00271463 43550
FENGYUN 3B              
1 37214U 10059A   24147.64296644  .00000177  00000+0  11572-3 0  9994
2 37214  99.0560 175.4339 0022735 151.2716 317.3257 14.14497724701168
SUOMI NPP               
1 37849U 11061A   24147.47455040  .00000169  00000+0  10067-3 0  9999
2 37849  98.7216  85.7808 0001118  56.1599 303.9683 14.19574704651790
FENGYUN 2F              
1 38049U 12002A   24147.59399304 -.00000346  00000+0  00000+0 0  9991
2 38049   5.5413  73.3413 0002555  76.9114  60.5441  1.00269572 45348
METEOSAT-10 (MSG-3)     
1 38552U 12035B   24147.32755510  .00000008  00000+0  00000+0 0  9996
2 38552   2.9170  60.8092 0001809 307.4428 354.1389  1.00274315 43312
METOP-B                 
1 38771U 12049A   24147.56471336  .00000250  00000+0  13366-3 0  9993
2 38771  98.6283 205.2710 0001905  95.4622 264.6773 14.21541595606480
INSAT-3D                
1 39216U 13038B   24147.57305237 -.00000143  00000+0  00000+0 0  9993
2 39216   0.0904  93.5977 0000576 221.0577 218.3546  1.00271371 39540
FENGYUN 3C              
1 39260U 13052A   24147.61847927  .00000197  00000+0  11991-3 0  9993
2 39260  98.4284 148.3689 0011791  34.9509 325.2438 14.16207934552214
METEOR-M 2              
1 40069U 14037A   24147.62459239  .00000238  00000+0  12879-3 0  9994
2 40069  98.4360 142.8271 0006918  66.4991 293.6914 14.20967610512564
HIMAWARI-8              
1 40267U 14060A   24147.57025733 -.00000262  00000+0  00000+0 0  9999
2 40267   0.0510 133.1113 0001235 327.1061 130.3765  1.00270867 35229
FENGYUN 2G              
1 40367U 14090A   24147.58546049 -.00000290  00000+0  00000+0 0  9993
2 40367   3.7359  81.7712 0002640 107.9324   5.1891  1.00279673 34469
METEOSAT-11 (MSG-4)     
1 40732U 15034A   24147.18620234  .00000076  00000+0  00000+0 0  9994
2 40732   1.3345  68.5509 0001616 163.3500  88.5884  1.00272163   305
ELEKTRO-L 2             
1 41105U 15074A   24147.18150311 -.00000102  00000+0  00000+0 0  9998
2 41105   4.7863  79.7208 0000269 215.5941 359.8054  1.00272321 30968
INSAT-3DR               
1 41752U 16054A   24147.55698201 -.00000064  00000+0  00000+0 0  9998
2 41752   0.1420  92.5284 0010093 180.3687 246.2341  1.00271074 28288
HIMAWARI-9              
1 41836U 16064A   24147.61391774 -.00000262  00000+0  00000+0 0  9994
2 41836   0.0132  81.8535 0001275  27.7445 136.8356  1.00272466 27676
GOES 16                 
1 41866U 16071A   24147.52730729 -.00000234  00000+0  00000+0 0  9991
2 41866   0.0536 264.6486 0000620 167.6840 286.8832  1.00272598 27568
FENGYUN 4A              
1 41882U 16077A   24147.45360708 -.00000189  00000+0  00000+0 0  9992
2 41882   0.4035  85.0229 0007829 341.8595  67.7680  1.00280758 27390
CYGFM05                 
1 41884U 16078A   24147.24137617  .00010721  00000+0  39977-3 0  9994
2 41884  34.9519  79.9807 0011951 349.7765  10.2706 15.26572315412725
CYGFM04                 
1 41885U 16078B   24147.11169926  .00011603  00000+0  42081-3 0  9999
2 41885  34.9474  65.0837 0009494   8.7112 351.3766 15.27497478412791
CYGFM02                 
1 41886U 16078C   24147.14076679  .00012031  00000+0  43204-3 0  9999
2 41886  34.9531  67.2042 0012166   0.6007 359.4722 15.27788227412888
CYGFM01                 
1 41887U 16078D   24147.15424885  .00010452  00000+0  39314-3 0  9999
2 41887  34.9518  84.3157 0012714 337.3636  22.6517 15.26279267412641
CYGFM08                 
1 41888U 16078E   24147.18636722  .00011223  00000+0  40920-3 0  9990
2 41888  34.9510  72.5058 0012829   1.2108 358.8636 15.27293268412825
CYGFM07                 
1 41890U 16078G   24147.10279453  .00011707  00000+0  42309-3 0  9999
2 41890  34.9524  64.5570 0009362   6.5937 353.4900 15.27612569412801
CYGFM03                 
1 41891U 16078H   24147.20175183  .00011143  00000+0  40386-3 0  9993
2 41891  34.9498  65.0936 0010279 354.7888   5.2718 15.27516543412800
FENGYUN 3D              
1 43010U 17072A   24147.59409700  .00000194  00000+0  11387-3 0  9993
2 43010  98.9097 102.1239 0002455  58.7034 301.4381 14.19347870338359
NOAA 20 (JPSS-1)        
1 43013U 17073A   24147.56291534  .00000172  00000+0  10227-3 0  9996
2 43013  98.7059  85.8468 0000311  39.1043 321.0155 14.19589028337833
GOES 17                 
1 43226U 18022A   24147.36445500 -.00000076  00000+0  00000+0 0  9997
2 43226   0.0617 109.6133 0000869 332.7273 188.5815  1.00271243 22882
FENGYUN 2H              
1 43491U 18050A   24147.57294469 -.00000117  00000+0  00000+0 0  9997
2 43491   1.0872  87.4083 0001698  23.7006  59.1496  1.00271086 21904
METOP-C                 
1 43689U 18087A   24147.60229534  .00000242  00000+0  13092-3 0  9998
2 43689  98.7244 207.1297 0002928 131.4227 228.7202 14.21478778288050
GEO-KOMPSAT-2A          
1 43823U 18100A   24147.60869110 -.00000331  00000+0  00000+0 0  9995
2 43823   0.0588 113.9568 0002407 324.7904 153.3172  1.00270861 20096
METEOR-M2 2             
1 44387U 19038A   24147.57769770  .00000093  00000+0  60383-4 0  9998
2 44387  98.8256 116.7184 0002092  53.9465 306.1907 14.23888604254314
ARKTIKA-M 1             
1 47719U 21016A   24143.83019160  .00000184  00000+0  00000+0 0  9991
2 47719  63.1390 154.6757 6933127 268.7537  17.9871  2.00614730 23636
FENGYUN 3E              
1 49008U 21062A   24147.57087708  .00000039  00000+0  39178-4 0  9995
2 49008  98.7320 149.1407 0002764  92.2118 267.9375 14.19755060149922
GOES 18                 
1 51850U 22021A   24147.53938350  .00000110  00000+0  00000+0 0  9990
2 51850   0.0074  83.1733 0000516 330.3325 248.2737  1.00272593  8233
NOAA 21 (JPSS-2)        
1 54234U 22150A   24147.59702585  .00000203  00000+0  11714-3 0  9998
2 54234  98.7512  85.7452 0000988 127.1525 232.9741 14.19517510 79919
METEOSAT-12 (MTG-I1)    
1 54743U 22170C   24147.32738104  .00000006  00000+0  00000+0 0  9995
2 54743   0.4786  36.3356 0001991  36.8364 288.5797  1.00269684  5430
TIANMU-1 03             
1 55973U 23039A   24147.58579147  .00009350  00000+0  38921-3 0  9992
2 55973  97.4672 298.3035 0010143 218.6951 141.3560 15.23924044 65563
TIANMU-1 04             
1 55974U 23039B   24147.63506187  .00009930  00000+0  41298-3 0  9998
2 55974  97.4594 297.9353 0010346 218.0125 142.0383 15.23932233 65567
TIANMU-1 05             
1 55975U 23039C   24147.61876514  .00009416  00000+0  39185-3 0  9992
2 55975  97.4642 298.2323 0008786 222.4189 137.6370 15.23940146 65554
TIANMU-1 06             
1 55976U 23039D   24147.60233693  .00008975  00000+0  37369-3 0  9998
2 55976  97.4656 298.3300 0008562 227.7034 132.3478 15.23939441 65552
METEOR-M2 3             
1 57166U 23091A   24147.61294665  .00000054  00000+0  42946-4 0  9994
2 57166  98.7139 202.4782 0003982 176.0883 184.0327 14.23895115 47559
TIANMU-1 07             
1 57399U 23101A   24147.59224867  .00005989  00000+0  30742-3 0  9990
2 57399  97.3636 205.3541 0003486 255.4819 104.6028 15.16877227 47158
TIANMU-1 08             
1 57400U 23101B   24147.62777656  .00006069  00000+0  31124-3 0  9991
2 57400  97.3626 205.2643 0005665 265.4979  94.5608 15.16894007 47157
TIANMU-1 09             
1 57401U 23101C   24147.54432982  .00005999  00000+0  30793-3 0  9995
2 57401  97.3580 205.0395 0006088 260.3556  99.6990 15.16862726 47146
TIANMU-1 10             
1 57402U 23101D   24147.57616068  .00006601  00000+0  33855-3 0  9991
2 57402  97.3660 205.3234 0008339 259.8175 100.2118 15.16841529 47141
FENGYUN 3F              
1 57490U 23111A   24147.59670972  .00000166  00000+0  99079-4 0  9996
2 57490  98.7701 216.9259 0001794 118.9774 241.1582 14.19818249 42209
TIANMU-1 11             
1 58645U 23205A   24147.58703950  .00005015  00000+0  27264-3 0  9999
2 58645  97.4038 173.2375 0013390 116.4391 243.8217 15.14850900 23241
TIANMU-1 12             
1 58646U 23205B   24147.60303151  .00005810  00000+0  31518-3 0  9992
2 58646  97.4024 173.1874 0011968 109.7751 250.4773 15.14878712 23235
TIANMU-1 13             
1 58647U 23205C   24147.56961183  .00005737  00000+0  31132-3 0  9993
2 58647  97.4053 173.1406 0011876  97.6969 262.5612 15.14870347 23224
TIANMU-1 14             
1 58648U 23205D   24147.61958841  .00006384  00000+0  34588-3 0  9994
2 58648  97.3978 173.0750 0012341  98.0393 262.2240 15.14876807 23237
TIANMU-1 19             
1 58660U 23208A   24147.55938573  .00006496  00000+0  35307-3 0  9998
2 58660  97.4097 260.4969 0010689  83.7663 276.4787 15.14775061 22895
TIANMU-1 20             
1 58661U 23208B   24147.57431403  .00006751  00000+0  35854-3 0  9992
2 58661  97.4027 260.4798 0011588  92.3045 267.9514 15.15575622 22905
TIANMU-1 21             
1 58662U 23208C   24147.57977578  .00007375  00000+0  38194-3 0  9994
2 58662  97.4065 260.7042 0011195  92.7549 267.4965 15.16437477 22912
